{
  "links" : {
    "next" : "https://api.nasa.gov/neo/rest/v1/feed?start_date=2004-08-09&end_date=2004-08-09&detailed=true&api_key=t0TVs3DtDT2H8Oy2Zy8m2eVrNsAVKAexjcZXUckd",
    "prev" : "https://api.nasa.gov/neo/rest/v1/feed?start_date=2004-08-07&end_date=2004-08-07&detailed=true&api_key=t0TVs3DtDT2H8Oy2Zy8m2eVrNsAVKAexjcZXUckd",
    "self" : "https://api.nasa.gov/neo/rest/v1/feed?start_date=2004-08-08&end_date=2004-08-08&detailed=true&api_key=t0TVs3DtDT2H8Oy2Zy8m2eVrNsAVKAexjcZXUckd"
  },
  "element_count" : 3,
  "near_earth_objects" : {
    "2004-08-08" : [ {
      "links" : {
        "self" : "https://api.nasa.gov/neo/rest/v1/neo/2164215?api_key=t0TVs3DtDT2H8Oy2Zy8m2eVrNsAVKAexjcZXUckd"
      },
      "neo_reference_id" : "2164215",
      "name" : "164215 Doloreshill (2004 MF6)",
      "nasa_jpl_url" : "http://ssd.jpl.nasa.gov/sbdb.cgi?sstr=2164215",
      "absolute_magnitude_h" : 20.0,
      "estimated_diameter" : {
        "kilometers" : {
          "estimated_diameter_min" : 0.2658,
          "estimated_diameter_max" : 0.5943468684
        },
        "meters" : {
          "estimated_diameter_min" : 265.8,
          "estimated_diameter_max" : 594.3468684194
        },
        "miles" : {
          "estimated_diameter_min" : 0.1651604118,
          "estimated_diameter_max" : 0.369309908
        },
        "feet" : {
          "estimated_diameter_min" : 872.047272,
          "estimated_diameter_max" : 1949.9569797852
        }
      },
      "is_potentially_hazardous_asteroid" : false,
      "close_approach_data" : [ {
        "close_approach_date" : "2004-08-08",
        "epoch_date_close_approach" : 1091948400000,
        "relative_velocity" : {
          "kilometers_per_second" : "1.9150931943",
          "kilometers_per_hour" : "6894.3354993327",
          "miles_per_hour" : "4283.8719662381"
        },
        "miss_distance" : {
          "astronomical" : "0.2933393454",
          "lunar" : "114.1090011597",
          "kilometers" : "43882940",
          "miles" : "27267596"
        },
        "orbiting_body" : "Earth"
      } ],
      "orbital_data" : {
        "orbit_id" : "42",
        "orbit_determination_date" : "2017-04-06 09:26:06",
        "orbit_uncertainty" : "0",
        "minimum_orbit_intersection" : ".279401",
        "jupiter_tisserand_invariant" : "3.627",
        "epoch_osculation" : "2458000.5",
        "eccentricity" : ".3959294626487101",
        "semi_major_axis" : "2.115300023355802",
        "inclination" : "4.878539262110173",
        "ascending_node_longitude" : "236.0160773648341",
        "orbital_period" : "1123.715543468933",
        "perihelion_distance" : "1.277790421767735",
        "perihelion_argument" : "76.61386069480544",
        "aphelion_distance" : "2.952809624943868",
        "perihelion_time" : "2457710.189084151757",
        "mean_anomaly" : "93.00568129789946",
        "mean_motion" : ".3203657741430473",
        "equinox" : "J2000"
      }
    }, {
      "links" : {
        "self" : "https://api.nasa.gov/neo/rest/v1/neo/3465236?api_key=t0TVs3DtDT2H8Oy2Zy8m2eVrNsAVKAexjcZXUckd"
      },
      "neo_reference_id" : "3465236",
      "name" : "(2009 OS5)",
      "nasa_jpl_url" : "http://ssd.jpl.nasa.gov/sbdb.cgi?sstr=3465236",
      "absolute_magnitude_h" : 24.5,
      "estimated_diameter" : {
        "kilometers" : {
          "estimated_diameter_min" : 0.0334622374,
          "estimated_diameter_max" : 0.0748238376
        },
        "meters" : {
          "estimated_diameter_min" : 33.4622374455,
          "estimated_diameter_max" : 74.8238376074
        },
        "miles" : {
          "estimated_diameter_min" : 0.0207924639,
          "estimated_diameter_max" : 0.0464933628
        },
        "feet" : {
          "estimated_diameter_min" : 109.7842471007,
          "estimated_diameter_max" : 245.4850393757
        }
      },
      "is_potentially_hazardous_asteroid" : false,
      "close_approach_data" : [ {
        "close_approach_date" : "2004-08-08",
        "epoch_date_close_approach" : 1091948400000,
        "relative_velocity" : {
          "kilometers_per_second" : "14.8863779553",
          "kilometers_per_hour" : "53590.9606392571",
          "miles_per_hour" : "33299.3388483206"
        },
        "miss_distance" : {
          "astronomical" : "0.4641360672",
          "lunar" : "180.5489349365",
          "kilometers" : "69433768",
          "miles" : "43144144"
        },
        "orbiting_body" : "Earth"
      } ],
      "orbital_data" : {
        "orbit_id" : "18",
        "orbit_determination_date" : "2017-04-06 09:00:20",
        "orbit_uncertainty" : "1",
        "minimum_orbit_intersection" : ".0292583",
        "jupiter_tisserand_invariant" : "5.481",
        "epoch_osculation" : "2458000.5",
        "eccentricity" : ".09673626615556992",
        "semi_major_axis" : "1.144191993633246",
        "inclination" : "1.695195740012207",
        "ascending_node_longitude" : "145.3657947297343",
        "orbital_period" : "447.0404109149791",
        "perihelion_distance" : "1.033507132404068",
        "perihelion_argument" : "120.8340101906368",
        "aphelion_distance" : "1.254876854862424",
        "perihelion_time" : "2458126.233789097346",
        "mean_anomaly" : "258.7470417217982",
        "mean_motion" : ".8052963249187488",
        "equinox" : "J2000"
      }
    }, {
      "links" : {
        "self" : "https://api.nasa.gov/neo/rest/v1/neo/3699506?api_key=t0TVs3DtDT2H8Oy2Zy8m2eVrNsAVKAexjcZXUckd"
      },
      "neo_reference_id" : "3699506",
      "name" : "(2014 WE365)",
      "nasa_jpl_url" : "http://ssd.jpl.nasa.gov/sbdb.cgi?sstr=3699506",
      "absolute_magnitude_h" : 21.0,
      "estimated_diameter" : {
        "kilometers" : {
          "estimated_diameter_min" : 0.1677084622,
          "estimated_diameter_max" : 0.3750075218
        },
        "meters" : {
          "estimated_diameter_min" : 167.7084621628,
          "estimated_diameter_max" : 375.0075217981
        },
        "miles" : {
          "estimated_diameter_min" : 0.1042091748,
          "estimated_diameter_max" : 0.2330187988
        },
        "feet" : {
          "estimated_diameter_min" : 550.2246310023,
          "estimated_diameter_max" : 1230.3396778159
        }
      },
      "is_potentially_hazardous_asteroid" : true,
      "close_approach_data" : [ {
        "close_approach_date" : "2004-08-08",
        "epoch_date_close_approach" : 1091948400000,
        "relative_velocity" : {
          "kilometers_per_second" : "9.7853428583",
          "kilometers_per_hour" : "35227.2342897677",
          "miles_per_hour" : "21888.8334396615"
        },
        "miss_distance" : {
          "astronomical" : "0.4799453611",
          "lunar" : "186.6987457275",
          "kilometers" : "71798808",
          "miles" : "44613708"
        },
        "orbiting_body" : "Earth"
      } ],
      "orbital_data" : {
        "orbit_id" : "10",
        "orbit_determination_date" : "2017-04-06 08:37:06",
        "orbit_uncertainty" : "4",
        "minimum_orbit_intersection" : ".0261735",
        "jupiter_tisserand_invariant" : "5.064",
        "epoch_osculation" : "2458000.5",
        "eccentricity" : ".5003695918056926",
        "semi_major_axis" : "1.23052795616534",
        "inclination" : "7.236622593868058",
        "ascending_node_longitude" : "130.9898345569591",
        "orbital_period" : "498.580919376288",
        "perihelion_distance" : ".6148091850333957",
        "perihelion_argument" : "67.33353308479667",
        "aphelion_distance" : "1.846246727297284",
        "perihelion_time" : "2458105.149303203855",
        "mean_anomaly" : "284.438044679855",
        "mean_motion" : ".7220492923201931",
        "equinox" : "J2000"
      }
    } ]
  }
}